{"type":"FeatureCollection","features":[{"type":"Feature","properties":{"osm_id":3172228994,"name":"","amenity":"recycling"},"geometry":{"type":"Point","coordinates":[4.4509961,45.8239173]}},{"type":"Feature","properties":{"osm_id":5927195311,"name":"Mairie de Montrottier","amenity":"townhall"},"geometry":{"type":"Point","coordinates":[4.4662948,45.7900455]}},{"type":"Feature","properties":{"osm_id":6076329940,"name":"Bibliothèque municipale","amenity":"library"},"geometry":{"type":"Point","coordinates":[4.4656547,45.7907017]}},{"type":"Feature","properties":{"osm_id":6076329941,"name":"Ciné Montrottier","amenity":"cinema"},"geometry":{"type":"Point","coordinates":[4.4654082,45.7905937]}},{"type":"Feature","properties":{"osm_id":8702364558,"name":"La Poste","amenity":"post_office"},"geometry":{"type":"Point","coordinates":[4.4653549,45.7913641]}},{"type":"Feature","properties":{"osm_id":9346033109,"name":"","amenity":"parking"},"geometry":{"type":"Point","coordinates":[4.4670655,45.790471]}},{"type":"Feature","properties":{"osm_id":9346033110,"name":"","amenity":"parking"},"geometry":{"type":"Point","coordinates":[4.4667391,45.790004]}},{"type":"Feature","properties":{"osm_id":9346125701,"name":"","amenity":"recycling"},"geometry":{"type":"Point","coordinates":[4.4654517,45.7919333]}},{"type":"Feature","properties":{"osm_id":9346125702,"name":"","amenity":"recycling"},"geometry":{"type":"Point","coordinates":[4.4659848,45.792295]}},{"type":"Feature","properties":{"osm_id":9346126966,"name":"La farandole","amenity":"kindergarten"},"geometry":{"type":"Point","coordinates":[4.4653607,45.7905765]}},{"type":"Feature","properties":{"osm_id":13359826916,"name":"École secondaire privée La Péraudière","amenity":"school"},"geometry":{"type":"Point","coordinates":[4.461325,45.7799454]}},{"type":"Feature","properties":{"osm_id":181167620,"name":"Église Saint-Sulpice","amenity":"place_of_worship"},"geometry":{"type":"Point","coordinates":[4.467208,45.7906265]}},{"type":"Feature","properties":{"osm_id":181172718,"name":"Église Saint-Jean Baptiste","amenity":"place_of_worship"},"geometry":{"type":"Point","coordinates":[4.4503975,45.82434]}},{"type":"Feature","properties":{"osm_id":181173043,"name":"Chapelle Saint-Antoine","amenity":"place_of_worship"},"geometry":{"type":"Point","coordinates":[4.4363834,45.8198548]}},{"type":"Feature","properties":{"osm_id":191557975,"name":"","amenity":"parking"},"geometry":{"type":"Point","coordinates":[4.4447456,45.7911604]}},{"type":"Feature","properties":{"osm_id":191557985,"name":"","amenity":"parking"},"geometry":{"type":"Point","coordinates":[4.445512,45.7929091]}},{"type":"Feature","properties":{"osm_id":191557987,"name":"","amenity":"parking"},"geometry":{"type":"Point","coordinates":[4.4442675,45.7923232]}},{"type":"Feature","properties":{"osm_id":191558013,"name":"","amenity":"parking"},"geometry":{"type":"Point","coordinates":[4.4459732,45.7912914]}},{"type":"Feature","properties":{"osm_id":314441430,"name":"","amenity":"grave_yard"},"geometry":{"type":"Point","coordinates":[4.4500299,45.8246819]}},{"type":"Feature","properties":{"osm_id":314441433,"name":"","amenity":"parking"},"geometry":{"type":"Point","coordinates":[4.4509191,45.8240077]}},{"type":"Feature","properties":{"osm_id":627846473,"name":"Place du Champ de Mars","amenity":"parking"},"geometry":{"type":"Point","coordinates":[4.4661214,45.7898657]}},{"type":"Feature","properties":{"osm_id":847191148,"name":"École de la Péraudière","amenity":"school"},"geometry":{"type":"Point","coordinates":[4.4619302,45.7798374]}},{"type":"Feature","properties":{"osm_id":864179936,"name":"Déchèterie Montrottier","amenity":"recycling"},"geometry":{"type":"Point","coordinates":[4.445436,45.7887086]}},{"type":"Feature","properties":{"osm_id":1013537947,"name":"Chappelle de l'École de la Péraudière","amenity":"place_of_worship"},"geometry":{"type":"Point","coordinates":[4.4611386,45.7802349]}},{"type":"Feature","properties":{"osm_id":1077972782,"name":"Aire de covoiturage de la Croix du Fol","amenity":"car_pooling"},"geometry":{"type":"Point","coordinates":[4.4517005,45.7986491]}},{"type":"Feature","properties":{"osm_id":1314073570,"name":"Place des Cèdres","amenity":"parking"},"geometry":{"type":"Point","coordinates":[4.4652912,45.7909471]}},{"type":"Feature","properties":{"osm_id":1456719691,"name":"E.PU Montrottier","amenity":"school"},"geometry":{"type":"Point","coordinates":[4.4649096,45.7904049]}},{"type":"Feature","properties":{"osm_id":1456719694,"name":"École primaire privée Saint-Joseph","amenity":"school"},"geometry":{"type":"Point","coordinates":[4.4670154,45.7918623]}},{"type":"Feature","properties":{"osm_id":181167593,"name":"Chapelle Saint-Martin","amenity":"place_of_worship","building":"chapel","historic":"yes","heritage":"3","ref_mhs":"PA00118142","start_date":"C12","wikidata":"Q22968340"},"geometry":{"type":"Point","coordinates":[4.458692421052632,45.792844947368415]}}]}