{"type":"Feature","properties":{"nom":"Montrottier","code":"69139","codeDepartement":"69","siren":"216901397","codeEpci":"200066587","codeRegion":"84","codesPostaux":["69770"],"population":1400},"geometry":{"type":"Polygon","coordinates":[[[4.485801,45.776962],[4.485573,45.777277],[4.485336,45.777512],[4.484831,45.778052],[4.484504,45.778355],[4.484009,45.778706],[4.48367,45.778993],[4.483202,45.779288],[4.482504,45.779478],[4.481843,45.779728],[4.480209,45.77921],[4.477908,45.778524],[4.476608,45.777829],[4.47609,45.77758],[4.475719,45.776495],[4.475585,45.776057],[4.475145,45.775979],[4.475077,45.775833],[4.474459,45.775155],[4.473883,45.774504],[4.473754,45.774396],[4.472432,45.773902],[4.472165,45.773833],[4.472285,45.774178],[4.472296,45.774443],[4.471091,45.774049],[4.470623,45.773828],[4.47032,45.773663],[4.470047,45.773466],[4.469269,45.773259],[4.469125,45.773279],[4.468454,45.773178],[4.468372,45.77312],[4.468651,45.772632],[4.4688,45.772304],[4.468959,45.772019],[4.468994,45.771865],[4.468908,45.771549],[4.468901,45.77108],[4.468873,45.770857],[4.468659,45.77034],[4.468585,45.770103],[4.46858,45.769889],[4.468356,45.769809],[4.468034,45.76951],[4.467616,45.769559],[4.466989,45.76956],[4.466245,45.769438],[4.461773,45.769026],[4.461822,45.768935],[4.461837,45.768666],[4.461897,45.768396],[4.462134,45.767668],[4.462209,45.767264],[4.462139,45.767232],[4.461609,45.766744],[4.461448,45.766649],[4.46106,45.766365],[4.460854,45.766147],[4.460746,45.76609],[4.460211,45.765906],[4.460074,45.766012],[4.459813,45.766134],[4.459718,45.766299],[4.459789,45.766446],[4.460031,45.766632],[4.46015,45.766899],[4.460153,45.767086],[4.460092,45.76725],[4.459834,45.767705],[4.459589,45.767781],[4.459183,45.76758],[4.458804,45.767458],[4.457791,45.767191],[4.45724,45.767178],[4.457135,45.767205],[4.456495,45.767592],[4.456218,45.767729],[4.455915,45.767845],[4.455577,45.76829],[4.455375,45.768852],[4.455217,45.768885],[4.454692,45.768844],[4.454354,45.769178],[4.454072,45.769412],[4.454472,45.76984],[4.454733,45.770036],[4.456071,45.77041],[4.456788,45.770707],[4.457188,45.770907],[4.457372,45.771062],[4.457495,45.771242],[4.457569,45.771505],[4.457644,45.771626],[4.457486,45.771769],[4.456949,45.771903],[4.456109,45.77204],[4.454967,45.772173],[4.454505,45.77226],[4.454236,45.772269],[4.453815,45.772235],[4.453556,45.772183],[4.452999,45.772159],[4.452467,45.772195],[4.452784,45.7729],[4.452572,45.773058],[4.45233,45.773187],[4.451695,45.773358],[4.451539,45.773375],[4.451234,45.773465],[4.450912,45.77359],[4.450725,45.773634],[4.44992,45.774103],[4.449884,45.774226],[4.449708,45.774121],[4.448755,45.774568],[4.448904,45.774779],[4.448884,45.775191],[4.448801,45.775874],[4.448692,45.776201],[4.448174,45.77665],[4.448235,45.77689],[4.448338,45.777122],[4.448405,45.777367],[4.448231,45.777677],[4.447595,45.778014],[4.446729,45.779783],[4.446431,45.780406],[4.446555,45.780605],[4.446192,45.781083],[4.445804,45.781182],[4.445429,45.781308],[4.44509,45.781372],[4.444993,45.781431],[4.444529,45.781852],[4.444294,45.783487],[4.444243,45.784029],[4.444027,45.784783],[4.443828,45.784866],[4.44318,45.784386],[4.44343,45.785343],[4.443519,45.785733],[4.443673,45.785961],[4.443858,45.786416],[4.443975,45.786981],[4.444068,45.787142],[4.444164,45.787635],[4.444174,45.787774],[4.444111,45.788088],[4.443832,45.788842],[4.443754,45.789088],[4.443764,45.789363],[4.443866,45.789661],[4.444105,45.790078],[4.444223,45.790375],[4.44426,45.790662],[4.444222,45.791065],[4.444438,45.792438],[4.445183,45.793062],[4.445611,45.793612],[4.446027,45.793969],[4.446166,45.794115],[4.446119,45.794427],[4.44618,45.79479],[4.446116,45.795348],[4.446018,45.795754],[4.445812,45.79673],[4.441523,45.799005],[4.44167,45.799363],[4.441684,45.799568],[4.441645,45.79998],[4.441584,45.800162],[4.441389,45.800535],[4.441305,45.800912],[4.441233,45.80104],[4.440961,45.801178],[4.44036,45.801538],[4.440291,45.801658],[4.440309,45.801907],[4.440212,45.802079],[4.439963,45.80222],[4.439353,45.802792],[4.438809,45.803053],[4.438688,45.803152],[4.438271,45.803554],[4.437864,45.803901],[4.437693,45.803996],[4.437515,45.804036],[4.437316,45.804163],[4.436979,45.804294],[4.436669,45.804459],[4.436343,45.804684],[4.436204,45.804884],[4.436261,45.805202],[4.436253,45.805426],[4.436162,45.805754],[4.435983,45.805845],[4.43596,45.806264],[4.435847,45.806551],[4.435954,45.806852],[4.435799,45.807155],[4.435598,45.807392],[4.43549,45.807676],[4.435337,45.807859],[4.435263,45.808081],[4.435347,45.808192],[4.435579,45.808386],[4.435766,45.808508],[4.436043,45.808741],[4.436289,45.809031],[4.436276,45.809296],[4.435907,45.810125],[4.436017,45.810331],[4.436206,45.810446],[4.436208,45.810874],[4.436126,45.811331],[4.436207,45.811647],[4.436203,45.811736],[4.435961,45.81195],[4.435997,45.812372],[4.43609,45.812531],[4.436112,45.812728],[4.436031,45.813046],[4.43583,45.813405],[4.435811,45.8135],[4.435665,45.813783],[4.435608,45.813812],[4.435453,45.81404],[4.435341,45.814135],[4.435047,45.814232],[4.434874,45.814348],[4.434705,45.814705],[4.43469,45.814922],[4.434763,45.815462],[4.43478,45.815713],[4.434954,45.816022],[4.435109,45.816415],[4.43513,45.816567],[4.435125,45.817166],[4.435187,45.817424],[4.435207,45.81766],[4.435155,45.817858],[4.434893,45.8184],[4.4347,45.818864],[4.434711,45.819084],[4.434805,45.819405],[4.434436,45.81953],[4.434153,45.819587],[4.433918,45.819598],[4.433398,45.819539],[4.433072,45.819437],[4.432954,45.819543],[4.432367,45.819424],[4.431764,45.81939],[4.43162,45.819405],[4.43021,45.819777],[4.429621,45.819859],[4.429111,45.819985],[4.429043,45.820057],[4.429121,45.820159],[4.429177,45.820874],[4.429281,45.821015],[4.429448,45.82113],[4.429912,45.821282],[4.430382,45.821355],[4.430987,45.82137],[4.431323,45.821403],[4.431518,45.82147],[4.432002,45.822005],[4.432158,45.822278],[4.4322,45.822458],[4.432373,45.822714],[4.432619,45.823707],[4.432364,45.824222],[4.432081,45.824662],[4.431823,45.824945],[4.431328,45.825698],[4.431532,45.825672],[4.431997,45.826977],[4.432086,45.827284],[4.43237,45.827999],[4.432532,45.82811],[4.432757,45.82843],[4.432984,45.828646],[4.434345,45.829347],[4.434336,45.829461],[4.434477,45.82988],[4.434624,45.830069],[4.43518,45.830405],[4.435369,45.830488],[4.435932,45.830648],[4.436244,45.83079],[4.436722,45.831078],[4.437311,45.831581],[4.437565,45.831899],[4.437717,45.832031],[4.438265,45.83241],[4.438426,45.832617],[4.438611,45.832793],[4.439076,45.833116],[4.439348,45.833255],[4.439804,45.833376],[4.440013,45.833492],[4.440165,45.833622],[4.440463,45.83368],[4.440661,45.833605],[4.440708,45.833683],[4.440593,45.833922],[4.440768,45.834049],[4.440914,45.834092],[4.441019,45.834221],[4.441371,45.834479],[4.441608,45.834606],[4.441901,45.834672],[4.442345,45.834715],[4.442481,45.834814],[4.442627,45.835005],[4.442965,45.8351],[4.44353,45.835128],[4.443871,45.835214],[4.444203,45.835345],[4.444354,45.835365],[4.444618,45.835312],[4.444973,45.835297],[4.445212,45.835223],[4.445384,45.835248],[4.445738,45.835477],[4.446035,45.835573],[4.446203,45.835739],[4.446431,45.835895],[4.446661,45.836005],[4.446968,45.836092],[4.447212,45.836297],[4.44744,45.836586],[4.447675,45.836952],[4.448093,45.836873],[4.448273,45.83687],[4.448488,45.836769],[4.448658,45.836613],[4.448688,45.836333],[4.4489,45.835962],[4.44915,45.835744],[4.449386,45.835378],[4.452559,45.835031],[4.45372,45.834475],[4.45361,45.833766],[4.453554,45.833545],[4.453587,45.833411],[4.453559,45.83258],[4.453417,45.832028],[4.453305,45.83174],[4.453319,45.831452],[4.453372,45.83107],[4.453388,45.830374],[4.45342,45.830215],[4.453364,45.829877],[4.453354,45.829522],[4.454802,45.828464],[4.455235,45.828108],[4.459581,45.825626],[4.460128,45.825279],[4.460676,45.825255],[4.461058,45.825192],[4.461268,45.825203],[4.461485,45.82512],[4.462439,45.82497],[4.463191,45.824764],[4.465571,45.82434],[4.470061,45.821483],[4.475208,45.818208],[4.475434,45.818123],[4.475713,45.817958],[4.477558,45.813667],[4.480858,45.811161],[4.481791,45.810523],[4.482163,45.810235],[4.485316,45.80852],[4.486192,45.808557],[4.486315,45.808481],[4.486707,45.807992],[4.486963,45.807811],[4.487438,45.80758],[4.48784,45.807436],[4.488304,45.807334],[4.489054,45.807131],[4.489608,45.806996],[4.490265,45.806924],[4.490758,45.806799],[4.491027,45.806753],[4.49157,45.8067],[4.491825,45.806633],[4.492132,45.806417],[4.492802,45.805773],[4.493007,45.805629],[4.49421,45.805014],[4.494481,45.804806],[4.494464,45.804645],[4.494763,45.804347],[4.494983,45.804232],[4.495031,45.804092],[4.495136,45.804044],[4.495114,45.803923],[4.495203,45.803754],[4.495359,45.803558],[4.495559,45.803235],[4.495851,45.802949],[4.49591,45.802789],[4.495826,45.802615],[4.49587,45.802478],[4.495977,45.80242],[4.496141,45.802452],[4.496355,45.801986],[4.496548,45.80173],[4.496639,45.801424],[4.496787,45.800568],[4.496851,45.800354],[4.496957,45.799778],[4.496981,45.799401],[4.496965,45.799045],[4.496979,45.798646],[4.49712,45.798113],[4.497177,45.797971],[4.499963,45.794036],[4.500183,45.793528],[4.500245,45.793287],[4.500646,45.792496],[4.500719,45.792293],[4.501305,45.791302],[4.501408,45.79095],[4.501499,45.790791],[4.501585,45.790541],[4.501562,45.790252],[4.501471,45.790097],[4.501481,45.789754],[4.50176,45.789272],[4.501655,45.789093],[4.501375,45.788926],[4.501146,45.788919],[4.501005,45.788965],[4.500536,45.789063],[4.500284,45.789089],[4.499918,45.789092],[4.499631,45.789138],[4.499212,45.78926],[4.498947,45.789247],[4.498684,45.789202],[4.498218,45.789183],[4.497612,45.789485],[4.497108,45.78965],[4.496981,45.789639],[4.496849,45.78946],[4.496707,45.789416],[4.496847,45.789253],[4.497132,45.789025],[4.497227,45.78878],[4.497286,45.78819],[4.497253,45.787733],[4.497062,45.787397],[4.496995,45.787213],[4.496867,45.786999],[4.496606,45.786711],[4.496163,45.78599],[4.495906,45.785463],[4.495773,45.785226],[4.495512,45.784904],[4.494813,45.7842],[4.49449,45.783827],[4.494154,45.783367],[4.493524,45.782538],[4.493122,45.782143],[4.492583,45.781531],[4.492526,45.78143],[4.492289,45.781413],[4.491989,45.781328],[4.491682,45.781211],[4.49156,45.781195],[4.490855,45.781232],[4.490326,45.780966],[4.489602,45.780767],[4.486892,45.779428],[4.487104,45.779288],[4.487514,45.778663],[4.487624,45.778552],[4.487975,45.778318],[4.488672,45.777909],[4.48834,45.777661],[4.488143,45.777728],[4.487672,45.778012],[4.487503,45.778028],[4.487085,45.777656],[4.486577,45.777328],[4.486262,45.777155],[4.485801,45.776962]]]}}