{"type":"FeatureCollection","features":[{"type":"Feature","properties":{"osm_id":1493316350,"name":"Montrottier","place":"village"},"geometry":{"type":"Point","coordinates":[4.4663652,45.7907119]}},{"type":"Feature","properties":{"osm_id":1916287922,"name":"Albigny","place":"village"},"geometry":{"type":"Point","coordinates":[4.4506207,45.8240181]}},{"type":"Feature","properties":{"osm_id":1916287926,"name":"Bonnamour","place":"hamlet"},"geometry":{"type":"Point","coordinates":[4.4484376,45.8171826]}},{"type":"Feature","properties":{"osm_id":1916287929,"name":"Bord'Huile","place":"isolated_dwelling"},"geometry":{"type":"Point","coordinates":[4.4648162,45.821758]}},{"type":"Feature","properties":{"osm_id":1916287933,"name":"Chambadière","place":"hamlet"},"geometry":{"type":"Point","coordinates":[4.4737075,45.7953683]}},{"type":"Feature","properties":{"osm_id":1916287947,"name":"Chevrolière","place":"locality"},"geometry":{"type":"Point","coordinates":[4.450487,45.8323025]}},{"type":"Feature","properties":{"osm_id":1916287948,"name":"L'Olivière","place":"hamlet"},"geometry":{"type":"Point","coordinates":[4.4696757,45.7824052]}},{"type":"Feature","properties":{"osm_id":1916287950,"name":"La Beauverdière","place":"hamlet"},"geometry":{"type":"Point","coordinates":[4.4739381,45.7768494]}},{"type":"Feature","properties":{"osm_id":1916287951,"name":"La Botte","place":"isolated_dwelling"},"geometry":{"type":"Point","coordinates":[4.4934218,45.7843991]}},{"type":"Feature","properties":{"osm_id":1916287954,"name":"La Croix Matillon","place":"neighbourhood"},"geometry":{"type":"Point","coordinates":[4.4614892,45.7963077]}},{"type":"Feature","properties":{"osm_id":1916287957,"name":"La Curtilla","place":"hamlet"},"geometry":{"type":"Point","coordinates":[4.4779796,45.8015765]}},{"type":"Feature","properties":{"osm_id":1916287961,"name":"La Déserte","place":"hamlet"},"geometry":{"type":"Point","coordinates":[4.470979,45.7880056]}},{"type":"Feature","properties":{"osm_id":1916287976,"name":"La Farge","place":"isolated_dwelling"},"geometry":{"type":"Point","coordinates":[4.490085,45.7864516]}},{"type":"Feature","properties":{"osm_id":1916287978,"name":"La Grand'Cour","place":"hamlet"},"geometry":{"type":"Point","coordinates":[4.484004,45.8026797]}},{"type":"Feature","properties":{"osm_id":1916287979,"name":"La Guillonat","place":"isolated_dwelling"},"geometry":{"type":"Point","coordinates":[4.4512062,45.7787418]}},{"type":"Feature","properties":{"osm_id":1916287981,"name":"La Marche","place":"hamlet"},"geometry":{"type":"Point","coordinates":[4.4563946,45.7860664]}},{"type":"Feature","properties":{"osm_id":1916287982,"name":"La Paraudière","place":"hamlet"},"geometry":{"type":"Point","coordinates":[4.4611283,45.7785523]}},{"type":"Feature","properties":{"osm_id":1916287984,"name":"La Parollière","place":"isolated_dwelling"},"geometry":{"type":"Point","coordinates":[4.4354281,45.8249471]}},{"type":"Feature","properties":{"osm_id":1916287988,"name":"La Pelleraie","place":"hamlet"},"geometry":{"type":"Point","coordinates":[4.4670748,45.8186883]}},{"type":"Feature","properties":{"osm_id":1916288006,"name":"La Roullière","place":"isolated_dwelling"},"geometry":{"type":"Point","coordinates":[4.4864382,45.7933694]}},{"type":"Feature","properties":{"osm_id":1916288008,"name":"Le Camus","place":"hamlet"},"geometry":{"type":"Point","coordinates":[4.4567868,45.7894639]}},{"type":"Feature","properties":{"osm_id":1916288010,"name":"Le Coquis","place":"hamlet"},"geometry":{"type":"Point","coordinates":[4.4887407,45.8026743]}},{"type":"Feature","properties":{"osm_id":1916288011,"name":"Le Joannon","place":"hamlet"},"geometry":{"type":"Point","coordinates":[4.4664886,45.7734582]}},{"type":"Feature","properties":{"osm_id":1916288015,"name":"Le Michaud","place":"isolated_dwelling"},"geometry":{"type":"Point","coordinates":[4.4426926,45.8235375]}},{"type":"Feature","properties":{"osm_id":1916288019,"name":"Le Moulin","place":"isolated_dwelling"},"geometry":{"type":"Point","coordinates":[4.4705841,45.7750389]}},{"type":"Feature","properties":{"osm_id":1916288023,"name":"Le Pionnier","place":"hamlet"},"geometry":{"type":"Point","coordinates":[4.4590467,45.8173197]}},{"type":"Feature","properties":{"osm_id":1916288037,"name":"Le Raty","place":"hamlet"},"geometry":{"type":"Point","coordinates":[4.4625675,45.7879869]}},{"type":"Feature","properties":{"osm_id":1916288038,"name":"Le Renevier","place":"hamlet"},"geometry":{"type":"Point","coordinates":[4.4679449,45.7987214]}},{"type":"Feature","properties":{"osm_id":1916288040,"name":"Le Sapine","place":"locality"},"geometry":{"type":"Point","coordinates":[4.4631351,45.8089539]}},{"type":"Feature","properties":{"osm_id":1916288041,"name":"Le Souzy","place":"hamlet"},"geometry":{"type":"Point","coordinates":[4.4353082,45.8205723]}},{"type":"Feature","properties":{"osm_id":1916288042,"name":"Les Bois de Montmartin","place":"locality"},"geometry":{"type":"Point","coordinates":[4.4863215,45.7832217]}},{"type":"Feature","properties":{"osm_id":1916288044,"name":"Les Chazottes","place":"hamlet"},"geometry":{"type":"Point","coordinates":[4.4521537,45.8120273]}},{"type":"Feature","properties":{"osm_id":1916288049,"name":"Les Fouillouses","place":"locality"},"geometry":{"type":"Point","coordinates":[4.4953293,45.797526]}},{"type":"Feature","properties":{"osm_id":1916288066,"name":"Les Gouttes","place":"isolated_dwelling"},"geometry":{"type":"Point","coordinates":[4.4488989,45.7837356]}},{"type":"Feature","properties":{"osm_id":1916288067,"name":"Les Rivières","place":"hamlet"},"geometry":{"type":"Point","coordinates":[4.444076,45.8306868]}},{"type":"Feature","properties":{"osm_id":1916288068,"name":"Les Roches","place":"isolated_dwelling"},"geometry":{"type":"Point","coordinates":[4.481027,45.8078676]}},{"type":"Feature","properties":{"osm_id":1916288070,"name":"Malagoutte","place":"neighbourhood"},"geometry":{"type":"Point","coordinates":[4.4589725,45.7998444]}},{"type":"Feature","properties":{"osm_id":1916288071,"name":"Malval","place":"hamlet"},"geometry":{"type":"Point","coordinates":[4.4501469,45.7889955]}},{"type":"Feature","properties":{"osm_id":1916288073,"name":"Mazieux","place":"hamlet"},"geometry":{"type":"Point","coordinates":[4.4706938,45.8121868]}},{"type":"Feature","properties":{"osm_id":1916288076,"name":"Montaly","place":"hamlet"},"geometry":{"type":"Point","coordinates":[4.4705043,45.8049007]}},{"type":"Feature","properties":{"osm_id":1916288096,"name":"Montmartin","place":"hamlet"},"geometry":{"type":"Point","coordinates":[4.4855116,45.7864543]}},{"type":"Feature","properties":{"osm_id":1916288098,"name":"Montu","place":"isolated_dwelling"},"geometry":{"type":"Point","coordinates":[4.476598,45.8116417]}},{"type":"Feature","properties":{"osm_id":1916288099,"name":"Pineteau","place":"isolated_dwelling"},"geometry":{"type":"Point","coordinates":[4.4764587,45.7911306]}},{"type":"Feature","properties":{"osm_id":1916288102,"name":"Potu","place":"isolated_dwelling"},"geometry":{"type":"Point","coordinates":[4.4772862,45.781414]}},{"type":"Feature","properties":{"osm_id":1916288103,"name":"Robagny","place":"isolated_dwelling"},"geometry":{"type":"Point","coordinates":[4.4391788,45.8056573]}},{"type":"Feature","properties":{"osm_id":1916288106,"name":"Roche-Briand","place":"isolated_dwelling"},"geometry":{"type":"Point","coordinates":[4.4992802,45.7916618]}},{"type":"Feature","properties":{"osm_id":1916288109,"name":"Saint-Martin","place":"hamlet"},"geometry":{"type":"Point","coordinates":[4.4600262,45.7929059]}},{"type":"Feature","properties":{"osm_id":3192255707,"name":"Le Pavillon","place":"isolated_dwelling"},"geometry":{"type":"Point","coordinates":[4.4542268,45.82697]}},{"type":"Feature","properties":{"osm_id":3206473734,"name":"Le Carabet","place":"isolated_dwelling"},"geometry":{"type":"Point","coordinates":[4.4426026,45.8187731]}},{"type":"Feature","properties":{"osm_id":3206473749,"name":"La Renardière","place":"hamlet"},"geometry":{"type":"Point","coordinates":[4.439317,45.8120122]}},{"type":"Feature","properties":{"osm_id":6213400198,"name":"Montchanin","place":"hamlet"},"geometry":{"type":"Point","coordinates":[4.4491617,45.7942275]}},{"type":"Feature","properties":{"osm_id":8048841568,"name":"La Grand' Maison","place":"hamlet"},"geometry":{"type":"Point","coordinates":[4.4627827,45.7837556]}},{"type":"Feature","properties":{"osm_id":8602778985,"name":"La Grand-Maison","place":"hamlet"},"geometry":{"type":"Point","coordinates":[4.4410731,45.8155335]}},{"type":"Feature","properties":{"osm_id":10766548931,"name":"Le Prou","place":"isolated_dwelling"},"geometry":{"type":"Point","coordinates":[4.4605565,45.7696784]}},{"type":"Feature","properties":{"osm_id":10769549543,"name":"Pontu","place":"hamlet"},"geometry":{"type":"Point","coordinates":[4.4483149,45.8043626]}},{"type":"Feature","properties":{"osm_id":10769549568,"name":"Le Munard","place":"hamlet"},"geometry":{"type":"Point","coordinates":[4.4584644,45.7740787]}},{"type":"Feature","properties":{"osm_id":10769549675,"name":"Les Bottières","place":"isolated_dwelling"},"geometry":{"type":"Point","coordinates":[4.4638342,45.8021338]}},{"type":"Feature","properties":{"osm_id":10769549782,"name":"Armont","place":"isolated_dwelling"},"geometry":{"type":"Point","coordinates":[4.4572306,45.8124882]}},{"type":"Feature","properties":{"osm_id":11648530088,"name":"Le Pionnier Nord","place":"locality"},"geometry":{"type":"Point","coordinates":[4.45724,45.8206496]}},{"type":"Feature","properties":{"osm_id":12588631100,"name":"La Petite Olivière","place":"hamlet"},"geometry":{"type":"Point","coordinates":[4.4704592,45.7859702]}}]}