{
  "type": "FeatureCollection",
  "features": [
    {
      "type": "Feature",
      "properties": {
        "osm_id": 2021425650,
        "category": "Corbeille",
        "name": "",
        "amenity": "waste_basket",
        "barrier": "",
        "highway": "",
        "emergency": "",
        "traffic_sign": "",
        "material": "",
        "backrest": "",
        "access": "",
        "source": ""
      },
      "geometry": {
        "type": "Point",
        "coordinates": [
          4.4646201,
          45.7918289
        ]
      }
    },
    {
      "type": "Feature",
      "properties": {
        "osm_id": 2021426155,
        "category": "Barrière / portail",
        "name": "",
        "amenity": "",
        "barrier": "gate",
        "highway": "",
        "emergency": "",
        "traffic_sign": "",
        "material": "",
        "backrest": "",
        "access": "",
        "source": "BDOrtho IGN 2020"
      },
      "geometry": {
        "type": "Point",
        "coordinates": [
          4.4453766,
          45.7887963
        ]
      }
    },
    {
      "type": "Feature",
      "properties": {
        "osm_id": 2021912549,
        "category": "Barrière / portail",
        "name": "",
        "amenity": "",
        "barrier": "gate",
        "highway": "",
        "emergency": "",
        "traffic_sign": "",
        "material": "",
        "backrest": "",
        "access": "",
        "source": "BDOrtho IGN 2020"
      },
      "geometry": {
        "type": "Point",
        "coordinates": [
          4.4451231,
          45.7901235
        ]
      }
    },
    {
      "type": "Feature",
      "properties": {
        "osm_id": 8050700180,
        "category": "Barrière / portail",
        "name": "",
        "amenity": "",
        "barrier": "gate",
        "highway": "",
        "emergency": "",
        "traffic_sign": "",
        "material": "",
        "backrest": "",
        "access": "",
        "source": "BDOrtho IGN 2020"
      },
      "geometry": {
        "type": "Point",
        "coordinates": [
          4.4450646,
          45.7886814
        ]
      }
    },
    {
      "type": "Feature",
      "properties": {
        "osm_id": 8050767085,
        "category": "Barrière / portail",
        "name": "",
        "amenity": "",
        "barrier": "gate",
        "highway": "",
        "emergency": "",
        "traffic_sign": "",
        "material": "",
        "backrest": "",
        "access": "",
        "source": "BDOrtho IGN 2020"
      },
      "geometry": {
        "type": "Point",
        "coordinates": [
          4.4454905,
          45.7888187
        ]
      }
    },
    {
      "type": "Feature",
      "properties": {
        "osm_id": 8050767089,
        "category": "Barrière / portail",
        "name": "",
        "amenity": "",
        "barrier": "gate",
        "highway": "",
        "emergency": "",
        "traffic_sign": "",
        "material": "",
        "backrest": "",
        "access": "",
        "source": "BDOrtho IGN 2020"
      },
      "geometry": {
        "type": "Point",
        "coordinates": [
          4.4457534,
          45.7889076
        ]
      }
    },
    {
      "type": "Feature",
      "properties": {
        "osm_id": 9346123765,
        "category": "Banc",
        "name": "",
        "amenity": "bench",
        "barrier": "",
        "highway": "",
        "emergency": "",
        "traffic_sign": "",
        "material": "wood",
        "backrest": "yes",
        "access": "",
        "source": ""
      },
      "geometry": {
        "type": "Point",
        "coordinates": [
          4.4654752,
          45.7908072
        ]
      }
    },
    {
      "type": "Feature",
      "properties": {
        "osm_id": 9346125703,
        "category": "Point déchets",
        "name": "",
        "amenity": "waste_disposal",
        "barrier": "",
        "highway": "",
        "emergency": "",
        "traffic_sign": "",
        "material": "",
        "backrest": "",
        "access": "",
        "source": ""
      },
      "geometry": {
        "type": "Point",
        "coordinates": [
          4.4659885,
          45.7922892
        ]
      }
    },
    {
      "type": "Feature",
      "properties": {
        "osm_id": 9346127283,
        "category": "Banc",
        "name": "",
        "amenity": "bench",
        "barrier": "",
        "highway": "",
        "emergency": "",
        "traffic_sign": "",
        "material": "wood",
        "backrest": "yes",
        "access": "",
        "source": ""
      },
      "geometry": {
        "type": "Point",
        "coordinates": [
          4.4654171,
          45.7907262
        ]
      }
    },
    {
      "type": "Feature",
      "properties": {
        "osm_id": 9346127284,
        "category": "Banc",
        "name": "",
        "amenity": "bench",
        "barrier": "",
        "highway": "",
        "emergency": "",
        "traffic_sign": "",
        "material": "wood",
        "backrest": "yes",
        "access": "",
        "source": ""
      },
      "geometry": {
        "type": "Point",
        "coordinates": [
          4.4653838,
          45.7907454
        ]
      }
    },
    {
      "type": "Feature",
      "properties": {
        "osm_id": 9346152592,
        "category": "Corbeille",
        "name": "",
        "amenity": "waste_basket",
        "barrier": "",
        "highway": "",
        "emergency": "",
        "traffic_sign": "",
        "material": "",
        "backrest": "",
        "access": "",
        "source": ""
      },
      "geometry": {
        "type": "Point",
        "coordinates": [
          4.4654174,
          45.7906212
        ]
      }
    },
    {
      "type": "Feature",
      "properties": {
        "osm_id": 9346152593,
        "category": "Corbeille",
        "name": "",
        "amenity": "waste_basket",
        "barrier": "",
        "highway": "",
        "emergency": "",
        "traffic_sign": "",
        "material": "",
        "backrest": "",
        "access": "",
        "source": ""
      },
      "geometry": {
        "type": "Point",
        "coordinates": [
          4.4653389,
          45.7906575
        ]
      }
    },
    {
      "type": "Feature",
      "properties": {
        "osm_id": 9346152594,
        "category": "Corbeille",
        "name": "",
        "amenity": "waste_basket",
        "barrier": "",
        "highway": "",
        "emergency": "",
        "traffic_sign": "",
        "material": "",
        "backrest": "",
        "access": "",
        "source": ""
      },
      "geometry": {
        "type": "Point",
        "coordinates": [
          4.4656031,
          45.7910647
        ]
      }
    },
    {
      "type": "Feature",
      "properties": {
        "osm_id": 9346152595,
        "category": "Corbeille",
        "name": "",
        "amenity": "waste_basket",
        "barrier": "",
        "highway": "",
        "emergency": "",
        "traffic_sign": "",
        "material": "",
        "backrest": "",
        "access": "",
        "source": ""
      },
      "geometry": {
        "type": "Point",
        "coordinates": [
          4.4654188,
          45.7913662
        ]
      }
    },
    {
      "type": "Feature",
      "properties": {
        "osm_id": 9346152596,
        "category": "Corbeille",
        "name": "",
        "amenity": "waste_basket",
        "barrier": "",
        "highway": "",
        "emergency": "",
        "traffic_sign": "",
        "material": "",
        "backrest": "",
        "access": "",
        "source": ""
      },
      "geometry": {
        "type": "Point",
        "coordinates": [
          4.4659673,
          45.7904399
        ]
      }
    },
    {
      "type": "Feature",
      "properties": {
        "osm_id": 9346189499,
        "category": "Point d'eau potable",
        "name": "",
        "amenity": "drinking_water",
        "barrier": "",
        "highway": "",
        "emergency": "",
        "traffic_sign": "",
        "material": "",
        "backrest": "",
        "access": "yes",
        "source": ""
      },
      "geometry": {
        "type": "Point",
        "coordinates": [
          4.4665954,
          45.790097
        ]
      }
    }
  ]
}